ADRAS-J                 
1 58992U 24034A   24097.89847686  .00003303  00000+0  31715-3 0  9992
2 58992  98.2060  67.7509 0042903 284.0739  75.5712 14.93151333  7226
